ONEWEB-0029             
1 45445U 20020X   25244.53891172  .00000484  00000+0  13286-2 0  9996
2 45445  87.8779  78.5726 0001729  82.1338 277.9986 13.11415447264820
ONEWEB-0068             
1 45446U 20020Y   25244.59894769  .00000518  00000+0  14253-2 0  9991
2 45446  87.8782  78.5494 0001775  80.7119 279.4210 13.11417682264773
ONEWEB-0046             
1 45447U 20020Z   25244.59061476  .00000116  00000+0  29285-3 0  9999
2 45447  87.8782  78.5613 0001952  86.5376 273.5975 13.11418393264787
ONEWEB-0063             
1 45448U 20020AA  25244.54314326  .00000268  00000+0  71962-3 0  9997
2 45448  87.8778  78.5688 0001839  92.3765 267.7573 13.11415678264867
ONEWEB-0019             
1 45449U 20020AB  25244.51685986  .00000361  00000+0  98302-3 0  9999
2 45449  87.8777  78.5907 0001627  84.0372 276.0942 13.11419716264701
ONEWEB-0094             
1 45450U 20020AC  25244.56954094 -.00002117  00000+0 -54869-2 0  9997
2 45450  87.9035  63.2517 0001761  88.1665 271.9668 13.17659133268302
ONEWEB-0087             
1 45451U 20020AD  25244.55315959 -.00000144  00000+0 -44273-3 0  9995
2 45451  87.8777  78.5160 0001871  80.4219 279.7120 13.11413488264759
ONEWEB-0082             
1 45452U 20020AE  25244.54992702  .00000006  00000+0 -19233-4 0  9997
2 45452  87.8778  78.5425 0001639  80.8331 279.2982 13.11416007264847
ONEWEB-0050             
1 45453U 20020AF  25244.58335648  .00016339  00000+0  17345-2 0  9997
2 45453  88.0062 275.9424 0000799  43.8940  35.4948 14.88965653  5646
ONEWEB-0034             
1 45454U 20020AG  25244.57110298 -.00000510  00000+0 -14758-2 0  9990
2 45454  87.8784  78.5592 0001685  86.2033 273.9288 13.11418446264761
ONEWEB-0060             
1 45455U 20020AH  25244.54229403  .00000307  00000+0  83084-3 0  9998
2 45455  87.8772  78.5922 0002173  52.2393 307.8931 13.11418454264717
ONEWEB-0086             
1 45456U 20020AJ  25244.59740094  .00000422  00000+0  11537-2 0  9999
2 45456  87.8782  78.5512 0001377  60.3504 299.7761 13.11420109264780
ONEWEB-0088             
1 45457U 20020AK  25244.57534395 -.00000324  00000+0 -95078-3 0  9999
2 45457  87.8789  78.5020 0001825  86.5707 273.5630 13.11418375264715
ONEWEB-0102             
1 47258U 20100A   25244.50087880 -.00000006  00000+0 -52239-4 0  9994
2 47258  87.8882  48.0488 0001602  96.6151 263.5160 13.12444751226867
ONEWEB-0109             
1 47259U 20100B   25244.50899276  .00000251  00000+0  66337-3 0  9998
2 47259  87.8877  48.0160 0001579  94.7592 265.3717 13.12444529226692
ONEWEB-0110             
1 47260U 20100C   25244.53493385  .00000355  00000+0  95076-3 0  9991
2 47260  87.8877  47.9949 0001573  83.4925 276.6383 13.12441514226860
ONEWEB-0111             
1 47261U 20100D   25244.48951815 -.00000359  00000+0 -10336-2 0  9994
2 47261  87.8881  48.0211 0001683  93.6300 266.5021 13.12443062226690
ONEWEB-0114             
1 47262U 20100E   25244.52034540  .00000507  00000+0  13740-2 0  9992
2 47262  87.8873  48.0089 0001587 103.6394 256.4911 13.12443234226656
ONEWEB-0117             
1 47263U 20100F   25244.51223489  .00000268  00000+0  70961-3 0  9997
2 47263  87.8882  48.0083 0001693  90.6027 269.5296 13.12443954226668
ONEWEB-0118             
1 47264U 20100G   25244.46843427 -.00000065  00000+0 -21602-3 0  9997
2 47264  87.8878  48.0164 0001865 102.9890 257.1447 13.12441160226859
ONEWEB-0119             
1 47265U 20100H   25244.49600973 -.00000150  00000+0 -45353-3 0  9992
2 47265  87.8877  48.0487 0001664  92.7726 267.3593 13.12444473226831
ONEWEB-0120             
1 47266U 20100J   25244.51886243  .00000445  00000+0  12020-2 0  9991
2 47266  87.8884  48.0446 0001628  96.6604 263.4710 13.12443622226869
ONEWEB-0121             
1 47267U 20100K   25244.50736912  .00000202  00000+0  52583-3 0  9998
2 47267  87.8879  48.0140 0001667  89.7014 270.4305 13.12444018226774
ONEWEB-0122             
1 47268U 20100L   25244.50236240  .00000058  00000+0  12633-3 0  9999
2 47268  87.8880  48.0178 0001551  92.2867 267.8439 13.12443646226689
ONEWEB-0123             
1 47269U 20100M   25244.49762599 -.00000070  00000+0 -22858-3 0  9995
2 47269  87.8876  48.0469 0001810  94.4672 265.6663 13.12443098226826
ONEWEB-0124             
1 47270U 20100N   25244.48627311 -.00000364  00000+0 -10459-2 0  9997
2 47270  87.8882  48.0511 0001801  87.7301 272.4034 13.12442517226707
ONEWEB-0125             
1 47271U 20100P   25244.46356754  .00000093  00000+0  22364-3 0  9992
2 47271  87.8880  48.0184 0001974  92.5271 267.6084 13.12441776226766
ONEWEB-0126             
1 47272U 20100Q   25244.48477082 -.00000361  00000+0 -10393-2 0  9991
2 47272  87.8888  48.0344 0001679  96.2853 263.8467 13.12441428226837
ONEWEB-0127             
1 47273U 20100R   25244.52683243  .00000398  00000+0  10700-2 0  9995
2 47273  87.8882  48.0395 0001573  95.8126 264.3182 13.12442102226862
ONEWEB-0128             
1 47274U 20100S   25244.47329622 -.00000188  00000+0 -55719-3 0  9997
2 47274  87.8874  48.0749 0001473  87.9979 272.1318 13.12442211226874
ONEWEB-0129             
1 47275U 20100T   25244.52845532  .00000481  00000+0  13023-2 0  9992
2 47275  87.8880  48.0078 0001401 136.9824 223.1414 13.12442722226816
ONEWEB-0130             
1 47276U 20100U   25244.47978398 -.00000346  00000+0 -99598-3 0  9998
2 47276  87.8876  48.0149 0001590  91.8784 268.2526 13.12442986226775
ONEWEB-0131             
1 47277U 20100V   25244.47655358 -.00001166  00000+0 -32774-2 0  9990
2 47277  87.8878  48.0447 0001694  89.6945 270.4377 13.12435068226815
ONEWEB-0132             
1 47278U 20100W   25244.50574675  .00000203  00000+0  52799-3 0  9996
2 47278  87.8881  48.0413 0001842  87.1949 272.9390 13.12443678226712
ONEWEB-0133             
1 47279U 20100X   25244.44558717  .00000453  00000+0  12238-2 0  9999
2 47279  87.8866  48.0244 0001612  87.6636 272.4677 13.12442817226864
ONEWEB-0134             
1 47280U 20100Y   25244.49114108 -.00000304  00000+0 -87940-3 0  9998
2 47280  87.8882  48.0008 0001441  91.6318 268.4976 13.12443516226846
ONEWEB-0135             
1 47281U 20100Z   25244.46194193  .00000140  00000+0  35331-3 0  9991
2 47281  87.8879  48.0469 0001312  83.6045 276.5233 13.12440440226860
ONEWEB-0136             
1 47282U 20100AA  25244.48140058 -.00000362  00000+0 -10415-2 0  9998
2 47282  87.8880  48.0115 0001282  95.4534 264.6741 13.12442184226792
ONEWEB-0137             
1 47283U 20100AB  25244.51548064  .00000359  00000+0  96356-3 0  9995
2 47283  87.8882  48.0109 0001788  98.0353 262.0979 13.12443280226701
ONEWEB-0138             
1 47284U 20100AC  25244.49438557 -.00000239  00000+0 -70000-3 0  9995
2 47284  87.8881  48.0250 0001588  94.0443 266.0867 13.12443013226784
ONEWEB-0139             
1 47285U 20100AD  25244.53347328  .00000306  00000+0  81608-3 0  9995
2 47285  87.8874  48.0090 0001684  92.7971 267.3351 13.12441849226863
ONEWEB-0140             
1 47286U 20100AE  25244.48789640 -.00000335  00000+0 -96729-3 0  9991
2 47286  87.8877  48.0020 0001594  92.9865 267.1446 13.12442939226824
ONEWEB-0141             
1 47287U 20100AF  25244.53317704  .00000335  00000+0  89635-3 0  9992
2 47287  87.8869  48.0085 0001908 100.6710 259.4634 13.12441597226813
ONEWEB-0142             
1 47288U 20100AG  25244.52209137  .00000474  00000+0  12823-2 0  9990
2 47288  87.8885  48.0255 0001765 105.7297 254.4026 13.12441244226806
ONEWEB-0143             
1 47289U 20100AH  25244.53169592  .00000360  00000+0  96536-3 0  9990
2 47289  87.8882  48.0205 0001706  92.3173 267.8151 13.12441363226784
ONEWEB-0144             
1 47290U 20100AJ  25244.50412338  .00000117  00000+0  28928-3 0  9998
2 47290  87.8873  48.0025 0001552 101.5223 258.6080 13.12443142226702
ONEWEB-0145             
1 47291U 20100AK  25244.47492120 -.00000238  00000+0 -69653-3 0  9998
2 47291  87.8881  48.0383 0001628  95.0363 265.0952 13.12441846226894
ONEWEB-0146             
1 47292U 20100AL  25244.47167716 -.00000193  00000+0 -57313-3 0  9999
2 47292  87.8880  48.0256 0001880  83.3857 276.7486 13.12441679226807
ONEWEB-0147             
1 47293U 20100AM  25244.43762395  .00000378  00000+0  10145-2 0  9994
2 47293  87.8881  48.0110 0001413  89.1660 270.9631 13.12445425226694
ONEWEB-0115             
1 48042U 21025A   25244.38645791 -.00000064  00000+0 -20967-3 0  9996
2 48042  87.9018  17.5814 0001775  96.2275 263.9057 13.13470925215689
ONEWEB-0152             
1 48043U 21025B   25244.62852847 -.00000248  00000+0 -71457-3 0  9990
2 48043  87.9018  17.5479 0001749  93.7325 266.4004 13.13469728215674
ONEWEB-0153             
1 48044U 21025C   25244.60652789  .00000202  00000+0  51781-3 0  9998
2 48044  87.9021  17.5512 0001750  99.1019 261.0308 13.13469516215661
ONEWEB-0154             
1 48045U 21025D   25244.60313630  .00000282  00000+0  73709-3 0  9990
2 48045  87.9016  17.5493 0001704  96.7786 263.3537 13.13472275215628
ONEWEB-0116             
1 48046U 21025E   25244.41354482 -.00000036  00000+0 -13350-3 0  9995
2 48046  87.9018  17.5689 0001793  92.9111 267.2224 13.13471130215744
ONEWEB-0150             
1 48047U 21025F   25244.61836831 -.00000112  00000+0 -34031-3 0  9995
2 48047  87.9019  17.5231 0001939 100.8249 259.3099 13.13469715215661
ONEWEB-0107             
1 48048U 21025G   25244.62006185 -.00000230  00000+0 -66533-3 0  9991
2 48048  87.9017  17.5210 0001649 107.8894 252.2415 13.13469366215642
ONEWEB-0101             
1 48049U 21025H   25244.43047289  .00000300  00000+0  78589-3 0  9991
2 48049  87.9014  17.5980 0001584  99.6585 260.4724 13.13470812215593
ONEWEB-0113             
1 48050U 21025J   25244.41036147 -.00000136  00000+0 -40539-3 0  9995
2 48050  87.9015  17.5447 0001871  92.8212 267.3132 13.13977622215685
ONEWEB-0112             
1 48051U 21025K   25244.62514745 -.00000279  00000+0 -79884-3 0  9997
2 48051  87.9019  17.5166 0001846  99.6778 260.4560 13.13470848215713
